LEMUR-2-KREMPEL-BRO1    
1 63357U 25061G   26064.50147129  .00006076  00000+0  33984-3 0  9993
2 63357  97.5523  41.1370 0017263 244.7415 115.2027 15.13717055 51941
LEMUR-2-LANGER2SPACE    
1 63358U 25061H   26064.44111146  .00005970  00000+0  33715-3 0  9991
2 63358  97.5530  40.9334 0015111 254.6910 105.2651 15.13404768 51921
LEMUR-2-BALTO           
1 63395U 25052BH  26064.62274009  .00008889  00000+0  74047-3 0  9995
2 63395  97.6993 319.4954 0002795   9.8251 350.3026 14.98863583 53242
