[{"OBJECT_NAME":"LEMUR-2-KREMPEL-BRO1","OBJECT_ID":"2025-061G","EPOCH":"2026-03-05T12:02:07.119456","MEAN_MOTION":15.13717055,"ECCENTRICITY":0.00172634,"INCLINATION":97.5523,"RA_OF_ASC_NODE":41.137,"ARG_OF_PERICENTER":244.7415,"MEAN_ANOMALY":115.2027,"EPHEMERIS_TYPE":0,"CLASSIFICATION_TYPE":"U","NORAD_CAT_ID":63357,"ELEMENT_SET_NO":999,"REV_AT_EPOCH":5194,"BSTAR":0.0003398351,"MEAN_MOTION_DOT":6.076e-5,"MEAN_MOTION_DDOT":0},{"OBJECT_NAME":"LEMUR-2-LANGER2SPACE","OBJECT_ID":"2025-061H","EPOCH":"2026-03-05T10:35:12.030144","MEAN_MOTION":15.13404768,"ECCENTRICITY":0.0015111,"INCLINATION":97.553,"RA_OF_ASC_NODE":40.9334,"ARG_OF_PERICENTER":254.691,"MEAN_ANOMALY":105.2651,"EPHEMERIS_TYPE":0,"CLASSIFICATION_TYPE":"U","NORAD_CAT_ID":63358,"ELEMENT_SET_NO":999,"REV_AT_EPOCH":5192,"BSTAR":0.00033714834,"MEAN_MOTION_DOT":5.97e-5,"MEAN_MOTION_DDOT":0},{"OBJECT_NAME":"LEMUR-2-BALTO","OBJECT_ID":"2025-052BH","EPOCH":"2026-03-05T14:56:44.743776","MEAN_MOTION":14.98863583,"ECCENTRICITY":0.00027955,"INCLINATION":97.6993,"RA_OF_ASC_NODE":319.4954,"ARG_OF_PERICENTER":9.8251,"MEAN_ANOMALY":350.3026,"EPHEMERIS_TYPE":0,"CLASSIFICATION_TYPE":"U","NORAD_CAT_ID":63395,"ELEMENT_SET_NO":999,"REV_AT_EPOCH":5324,"BSTAR":0.00074046972,"MEAN_MOTION_DOT":8.889e-5,"MEAN_MOTION_DDOT":0}]
